start=new Date('2021-10-31T00:00:00.000Z').valueOf();
sats=[{"PERIAPSIS":"546.086","MEAN_MOTION_DOT":"0.00001388","ELEMENT_SET_NO":"999","PERIOD":"95.592","INCLINATION":"53.0549","EPOCH":"2021-10-29T18:51:49.092768","CLASSIFICATION_TYPE":"U","OBJECT_NAME":"STARLINK-2703","BSTAR":"0.00011207000000","REF_FRAME":"TEME","SITE":"AFETR","MEAN_ANOMALY":"274.1504","MEAN_MOTION":"15.06400962","REV_AT_EPOCH":"2669","TLE_LINE2":"2 48452  53.0549 127.9364 0001624  85.9671 274.1504 15.06400962 26691","APOAPSIS":"548.335","GP_ID":"188517084","COUNTRY_CODE":"US","DECAY_DATE":null,"OBJECT_TYPE":"PAYLOAD","ECCENTRICITY":"0.00016240","LAUNCH_DATE":"2021-05-09","SEMIMAJOR_AXIS":"6925.346","EPHEMERIS_TYPE":"0","OBJECT_ID":"2021-040AA","MEAN_MOTION_DDOT":"0.0000000000000","RCS_SIZE":"LARGE","CENTER_NAME":"EARTH","NORAD_CAT_ID":"48452","MEAN_ELEMENT_THEORY":"SGP4","FILE":"3192905","ARG_OF_PERICENTER":"85.9671","TLE_LINE1":"1 48452U 21040AA  21302.78598487  .00001388  00000-0  11207-3 0  9998","RA_OF_ASC_NODE":"127.9364","TIME_SYSTEM":"UTC"},{"ARG_OF_PERICENTER":"82.4536","FILE":"3193232","TLE_LINE1":"1 48453U 21040AB  21303.64207002  .00000360  00000-0  43052-4 0  9998","TIME_SYSTEM":"UTC","RA_OF_ASC_NODE":"124.0943","RCS_SIZE":"LARGE","CENTER_NAME":"EARTH","NORAD_CAT_ID":"48453","MEAN_ELEMENT_THEORY":"SGP4","SEMIMAJOR_AXIS":"6925.345","LAUNCH_DATE":"2021-05-09","EPHEMERIS_TYPE":"0","OBJECT_ID":"2021-040AB","MEAN_MOTION_DDOT":"0.0000000000000","DECAY_DATE":null,"OBJECT_TYPE":"PAYLOAD","ECCENTRICITY":"0.00017720","APOAPSIS":"548.437","GP_ID":"188524306","COUNTRY_CODE":"US","REF_FRAME":"TEME","SITE":"AFETR","MEAN_ANOMALY":"277.6655","MEAN_MOTION":"15.06401197","REV_AT_EPOCH":"2810","TLE_LINE2":"2 48453  53.0541 124.0943 0001772  82.4536 277.6655 15.06401197 28105","CLASSIFICATION_TYPE":"U","OBJECT_NAME":"STARLINK-2620","BSTAR":"0.00004305200000","PERIAPSIS":"545.983","MEAN_MOTION_DOT":"0.00000360","PERIOD":"95.592","ELEMENT_SET_NO":"999","INCLINATION":"53.0541","EPOCH":"2021-10-30T15:24:34.849728"},{"RCS_SIZE":"LARGE","CENTER_NAME":"EARTH","MEAN_ELEMENT_THEORY":"SGP4","NORAD_CAT_ID":"48454","ARG_OF_PERICENTER":"82.4169","FILE":"3192905","TLE_LINE1":"1 48454U 21040AC  21303.24030446 -.00000427  00000-0 -97788-5 0  9993","RA_OF_ASC_NODE":"125.8974","TIME_SYSTEM":"UTC","DECAY_DATE":null,"OBJECT_TYPE":"PAYLOAD","ECCENTRICITY":"0.00019600","SEMIMAJOR_AXIS":"6925.366","LAUNCH_DATE":"2021-05-09","EPHEMERIS_TYPE":"0","OBJECT_ID":"2021-040AC","MEAN_MOTION_DDOT":"0.0000000000000","REF_FRAME":"TEME","SITE":"AFETR","MEAN_ANOMALY":"277.7042","MEAN_MOTION":"15.06394383","REV_AT_EPOCH":"2676","TLE_LINE2":"2 48454  53.0553 125.8974 0001960  82.4169 277.7042 15.06394383 26762","APOAPSIS":"548.588","GP_ID":"188517199","COUNTRY_CODE":"US","PERIAPSIS":"545.873","MEAN_MOTION_DOT":"-0.00000427","ELEMENT_SET_NO":"999","PERIOD":"95.592","INCLINATION":"53.0553","EPOCH":"2021-10-30T05:46:02.305344","CLASSIFICATION_TYPE":"U","OBJECT_NAME":"STARLINK-2654","BSTAR":"-0.00000977880000"},{"OBJECT_ID":"2021-040AD","MEAN_MOTION_DDOT":"0.0000000000000","SEMIMAJOR_AXIS":"6925.339","LAUNCH_DATE":"2021-05-09","EPHEMERIS_TYPE":"0","ECCENTRICITY":"0.00019720","OBJECT_TYPE":"PAYLOAD","DECAY_DATE":null,"FILE":"3192905","ARG_OF_PERICENTER":"77.6877","TIME_SYSTEM":"UTC","RA_OF_ASC_NODE":"125.9230","TLE_LINE1":"1 48455U 21040AD  21303.23661645  .00000747  00000-0  69022-4 0  9996","CENTER_NAME":"EARTH","RCS_SIZE":"LARGE","MEAN_ELEMENT_THEORY":"SGP4","NORAD_CAT_ID":"48455","OBJECT_NAME":"STARLINK-2497","BSTAR":"0.00006902200000","CLASSIFICATION_TYPE":"U","ELEMENT_SET_NO":"999","PERIOD":"95.592","PERIAPSIS":"545.838","MEAN_MOTION_DOT":"0.00000747","EPOCH":"2021-10-30T05:40:43.661280","INCLINATION":"53.0534","APOAPSIS":"548.569","COUNTRY_CODE":"US","GP_ID":"188516853","MEAN_MOTION":"15.06403187","TLE_LINE2":"2 48455  53.0534 125.9230 0001972  77.6877 282.4333 15.06403187 26751","REV_AT_EPOCH":"2675","SITE":"AFETR","REF_FRAME":"TEME","MEAN_ANOMALY":"282.4333"},{"DECAY_DATE":null,"OBJECT_TYPE":"PAYLOAD","ECCENTRICITY":"0.00020190","SEMIMAJOR_AXIS":"6925.354","LAUNCH_DATE":"2021-05-09","EPHEMERIS_TYPE":"0","OBJECT_ID":"2021-040AE","MEAN_MOTION_DDOT":"0.0000000000000","RCS_SIZE":"LARGE","CENTER_NAME":"EARTH","MEAN_ELEMENT_THEORY":"SGP4","NORAD_CAT_ID":"48456","ARG_OF_PERICENTER":"83.8517","FILE":"3192905","TLE_LINE1":"1 48456U 21040AE  21303.23293176  .00001309  00000-0  10680-3 0  9997","RA_OF_ASC_NODE":"125.9432","TIME_SYSTEM":"UTC","MEAN_MOTION_DOT":"0.00001309","PERIAPSIS":"545.820","ELEMENT_SET_NO":"999","PERIOD":"95.592","INCLINATION":"53.0532","EPOCH":"2021-10-30T05:35:25.304064","CLASSIFICATION_TYPE":"U","OBJECT_NAME":"STARLINK-2508","BSTAR":"0.00010680000000","REF_FRAME":"TEME","SITE":"AFETR","MEAN_ANOMALY":"276.2702","MEAN_MOTION":"15.06398323","TLE_LINE2":"2 48456  53.0532 125.9432 0002019  83.8517 276.2702 15.06398323 26753","REV_AT_EPOCH":"2675","APOAPSIS":"548.617","GP_ID":"188516736","COUNTRY_CODE":"US"},{"COUNTRY_CODE":"US","GP_ID":"188516969","APOAPSIS":"548.524","REV_AT_EPOCH":"2740","TLE_LINE2":"2 48458  53.0557 130.9140 0001920  90.6668 269.4541 15.06406328 27400","MEAN_MOTION":"15.06406328","MEAN_ANOMALY":"269.4541","SITE":"AFETR","REF_FRAME":"TEME","BSTAR":"-0.00002046500000","OBJECT_NAME":"STARLINK-2698","CLASSIFICATION_TYPE":"U","INCLINATION":"53.0557","EPOCH":"2021-10-30T05:41:21.596064","PERIOD":"95.592","ELEMENT_SET_NO":"999","PERIAPSIS":"545.865","MEAN_MOTION_DOT":"-0.00000587","TIME_SYSTEM":"UTC","RA_OF_ASC_NODE":"130.9140","TLE_LINE1":"1 48458U 21040AG  21303.23705551 -.00000587  00000-0 -20465-4 0  9996","ARG_OF_PERICENTER":"90.6668","FILE":"3192905","MEAN_ELEMENT_THEORY":"SGP4","NORAD_CAT_ID":"48458","CENTER_NAME":"EARTH","RCS_SIZE":"LARGE","MEAN_MOTION_DDOT":"0.0000000000000","OBJECT_ID":"2021-040AG","EPHEMERIS_TYPE":"0","SEMIMAJOR_AXIS":"6925.329","LAUNCH_DATE":"2021-05-09","ECCENTRICITY":"0.00019200","OBJECT_TYPE":"PAYLOAD","DECAY_DATE":null},{"ELEMENT_SET_NO":"999","PERIOD":"95.592","MEAN_MOTION_DOT":"0.00000195","PERIAPSIS":"546.015","EPOCH":"2021-10-30T00:06:58.024800","INCLINATION":"53.0547","OBJECT_NAME":"STARLINK-2579","BSTAR":"0.00003201700000","CLASSIFICATION_TYPE":"U","MEAN_MOTION":"15.06395704","TLE_LINE2":"2 48459  53.0547 131.9627 0001749  81.6300 278.4887 15.06395704 26668","REV_AT_EPOCH":"2666","SITE":"AFETR","REF_FRAME":"TEME","MEAN_ANOMALY":"278.4887","APOAPSIS":"548.438","COUNTRY_CODE":"US","GP_ID":"188517313","ECCENTRICITY":"0.00017490","OBJECT_TYPE":"PAYLOAD","DECAY_DATE":null,"OBJECT_ID":"2021-040AH","MEAN_MOTION_DDOT":"0.0000000000000","LAUNCH_DATE":"2021-05-09","SEMIMAJOR_AXIS":"6925.362","EPHEMERIS_TYPE":"0","CENTER_NAME":"EARTH","RCS_SIZE":"LARGE","NORAD_CAT_ID":"48459","MEAN_ELEMENT_THEORY":"SGP4","ARG_OF_PERICENTER":"81.6300","FILE":"3192905","TIME_SYSTEM":"UTC","RA_OF_ASC_NODE":"131.9627","TLE_LINE1":"1 48459U 21040AH  21303.00483825  .00000195  00000-0  32017-4 0  9998"},{"TLE_LINE1":"1 48460U 21040AJ  21303.65449984  .00001451  00000-0  11628-3 0  9999","TIME_SYSTEM":"UTC","RA_OF_ASC_NODE":"129.0443","FILE":"3193211","ARG_OF_PERICENTER":"88.4530","NORAD_CAT_ID":"48460","MEAN_ELEMENT_THEORY":"SGP4","RCS_SIZE":"LARGE","CENTER_NAME":"EARTH","EPHEMERIS_TYPE":"0","SEMIMAJOR_AXIS":"6925.327","LAUNCH_DATE":"2021-05-09","MEAN_MOTION_DDOT":"0.0000000000000","OBJECT_ID":"2021-040AJ","DECAY_DATE":null,"OBJECT_TYPE":"PAYLOAD","ECCENTRICITY":"0.00018110","GP_ID":"188524321","COUNTRY_CODE":"US","APOAPSIS":"548.446","MEAN_ANOMALY":"271.6666","REF_FRAME":"TEME","SITE":"AFETR","REV_AT_EPOCH":"2725","TLE_LINE2":"2 48460  53.0545 129.0443 0001811  88.4530 271.6666 15.06406960 27255","MEAN_MOTION":"15.06406960","CLASSIFICATION_TYPE":"U","BSTAR":"0.00011628000000","OBJECT_NAME":"STARLINK-2582","INCLINATION":"53.0545","EPOCH":"2021-10-30T15:42:28.786176","PERIAPSIS":"545.938","MEAN_MOTION_DOT":"0.00001451","ELEMENT_SET_NO":"999","PERIOD":"95.592"},{"ARG_OF_PERICENTER":"78.6883","FILE":"3193211","RA_OF_ASC_NODE":"128.3800","TIME_SYSTEM":"UTC","TLE_LINE1":"1 48461U 21040AK  21303.80194425  .00000466  00000-0  50232-4 0  9994","CENTER_NAME":"EARTH","RCS_SIZE":"LARGE","NORAD_CAT_ID":"48461","MEAN_ELEMENT_THEORY":"SGP4","SEMIMAJOR_AXIS":"6925.356","LAUNCH_DATE":"2021-05-09","EPHEMERIS_TYPE":"0","OBJECT_ID":"2021-040AK","MEAN_MOTION_DDOT":"0.0000000000000","DECAY_DATE":null,"ECCENTRICITY":"0.00021570","OBJECT_TYPE":"PAYLOAD","APOAPSIS":"548.715","COUNTRY_CODE":"US","GP_ID":"188524819","SITE":"AFETR","REF_FRAME":"TEME","MEAN_ANOMALY":"281.4349","MEAN_MOTION":"15.06397669","REV_AT_EPOCH":"2805","TLE_LINE2":"2 48461  53.0546 128.3800 0002157  78.6883 281.4349 15.06397669 28053","CLASSIFICATION_TYPE":"U","OBJECT_NAME":"STARLINK-2693","BSTAR":"0.00005023200000","ELEMENT_SET_NO":"999","PERIOD":"95.592","PERIAPSIS":"545.727","MEAN_MOTION_DOT":"0.00000466","EPOCH":"2021-10-30T19:14:47.983200","INCLINATION":"53.0546"},{"SEMIMAJOR_AXIS":"6925.348","LAUNCH_DATE":"2021-05-09","EPHEMERIS_TYPE":"0","OBJECT_ID":"2021-040AL","MEAN_MOTION_DDOT":"0.0000000000000","DECAY_DATE":null,"ECCENTRICITY":"0.00017910","OBJECT_TYPE":"PAYLOAD","ARG_OF_PERICENTER":"69.4622","FILE":"3192905","RA_OF_ASC_NODE":"137.4653","TIME_SYSTEM":"UTC","TLE_LINE1":"1 48462U 21040AL  21302.89563799  .00001355  00000-0  10983-3 0  9993","CENTER_NAME":"EARTH","RCS_SIZE":"LARGE","NORAD_CAT_ID":"48462","MEAN_ELEMENT_THEORY":"SGP4","CLASSIFICATION_TYPE":"U","OBJECT_NAME":"STARLINK-2683","BSTAR":"0.00010983000000","PERIOD":"95.592","ELEMENT_SET_NO":"999","PERIAPSIS":"545.973","MEAN_MOTION_DOT":"0.00001355","INCLINATION":"53.0511","EPOCH":"2021-10-29T21:29:43.122336","APOAPSIS":"548.453","COUNTRY_CODE":"US","GP_ID":"188516621","SITE":"AFETR","REF_FRAME":"TEME","MEAN_ANOMALY":"290.6559","MEAN_MOTION":"15.06400135","REV_AT_EPOCH":"2657","TLE_LINE2":"2 48462  53.0511 137.4653 0001791  69.4622 290.6559 15.06400135 26578"}];
